{"type": "FeatureCollection", "features": [ {"type": "Feature", "properties": {"norad_id": 37968, "name": "COSMOS 2251 DEB", "group": "cosmos-2251-debris", "lat": 36.7572874757405, "lon": 60.51019477509761, "alt_km": 600.8485555436382, "timestamp": "2025-12-21T16:47:55.136834+00:00", "meta": {"OBJECT_NAME": "COSMOS 2251 DEB", "OBJECT_ID": "1993-036BPT", "EPOCH": "2025-12-21T00:10:33.901248", "MEAN_MOTION": 15.00806785, "ECCENTRICITY": 0.00805513, "INCLINATION": 74.0006, "RA_OF_ASC_NODE": 254.2977, "ARG_OF_PERICENTER": 7.8808, "MEAN_ANOMALY": 352.3622, "EPHEMERIS_TYPE": 0, "CLASSIFICATION_TYPE": "U", "NORAD_CAT_ID": 37968, "ELEMENT_SET_NO": 999, "REV_AT_EPOCH": 60343, "BSTAR": 0.00064941669, "MEAN_MOTION_DOT": 8.807e-05, "MEAN_MOTION_DDOT": 0}, "tle": {"line1": "1 37968U 93036BPT 25355.00733682  .00008807  00000+0  64942-3 0  9993", "line2": "2 37968  74.0006 254.2977 0080551   7.8808 352.3622 15.00806785603437"}}, "geometry": {"type": "Point", "coordinates": [60.51019477509761, 36.7572874757405]}}, {"type": "Feature", "properties": {"norad_id": 37971, "name": "COSMOS 2251 DEB", "group": "cosmos-2251-debris", "lat": -2.329346974745074, "lon": -154.42155202068685, "alt_km": 688.0727023996342, "timestamp": "2025-12-21T16:47:55.136846+00:00", "meta": {"OBJECT_NAME": "COSMOS 2251 DEB", "OBJECT_ID": "1993-036BPW", "EPOCH": "2025-12-15T20:44:52.764576", "MEAN_MOTION": 14.48694104, "ECCENTRICITY": 0.00668395, "INCLINATION": 73.9939, "RA_OF_ASC_NODE": 35.8693, "ARG_OF_PERICENTER": 174.332, "MEAN_ANOMALY": 185.8612, "EPHEMERIS_TYPE": 0, "CLASSIFICATION_TYPE": "U", "NORAD_CAT_ID": 37971, "ELEMENT_SET_NO": 999, "REV_AT_EPOCH": 60723, "BSTAR": 0.0012835139, "MEAN_MOTION_DOT": 4.95e-05, "MEAN_MOTION_DDOT": 0}, "tle": {"line1": "1 37971U 93036BPW 25349.86449959  .00004950  00000+0  12835-2 0  9993", "line2": "2 37971  73.9939  35.8693 0066839 174.3320 185.8612 14.48694104607235"}}, "geometry": {"type": "Point", "coordinates": [-154.42155202068685, -2.329346974745074]}}, {"type": "Feature", "properties": {"norad_id": 37975, "name": "COSMOS 2251 DEB", "group": "cosmos-2251-debris", "lat": -54.535688020328486, "lon": 150.23474355707046, "alt_km": 609.2931086873878, "timestamp": "2025-12-21T16:47:55.136856+00:00", "meta": {"OBJECT_NAME": "COSMOS 2251 DEB", "OBJECT_ID": "1993-036BQA", "EPOCH": "2025-12-18T06:24:18.775872", "MEAN_MOTION": 14.76341165, "ECCENTRICITY": 0.00951612, "INCLINATION": 74.0019, "RA_OF_ASC_NODE": 313.2207, "ARG_OF_PERICENTER": 301.4276, "MEAN_ANOMALY": 57.7618, "EPHEMERIS_TYPE": 0, "CLASSIFICATION_TYPE": "U", "NORAD_CAT_ID": 37975, "ELEMENT_SET_NO": 999, "REV_AT_EPOCH": 69827, "BSTAR": 0.0032629501, "MEAN_MOTION_DOT": 0.00024448, "MEAN_MOTION_DDOT": 0}, "tle": {"line1": "1 37975U 93036BQA 25352.26688398  .00024448  00000+0  32630-2 0  9996", "line2": "2 37975  74.0019 313.2207 0095161 301.4276  57.7618 14.76341165698271"}}, "geometry": {"type": "Point", "coordinates": [150.23474355707046, -54.535688020328486]}}, {"type": "Feature", "properties": {"norad_id": 37985, "name": "COSMOS 2251 DEB", "group": "cosmos-2251-debris", "lat": 65.2565748025506, "lon": -72.27652611600978, "alt_km": 759.476363527705, "timestamp": "2025-12-21T16:47:55.136866+00:00", "meta": {"OBJECT_NAME": "COSMOS 2251 DEB", "OBJECT_ID": "1993-036BQL", "EPOCH": "2025-12-17T23:49:27.671232", "MEAN_MOTION": 14.35484605, "ECCENTRICITY": 0.00210144, "INCLINATION": 74.0252, "RA_OF_ASC_NODE": 256.0955, "ARG_OF_PERICENTER": 17.3481, "MEAN_ANOMALY": 342.8385, "EPHEMERIS_TYPE": 0, "CLASSIFICATION_TYPE": "U", "NORAD_CAT_ID": 37985, "ELEMENT_SET_NO": 999, "REV_AT_EPOCH": 64992, "BSTAR": 4.3734025e-05, "MEAN_MOTION_DOT": 1e-06, "MEAN_MOTION_DDOT": 0}, "tle": {"line1": "1 37985U 93036BQL 25351.99268138  .00000100  00000+0  43734-4 0  9990", "line2": "2 37985  74.0252 256.0955 0021014  17.3481 342.8385 14.35484605649921"}}, "geometry": {"type": "Point", "coordinates": [-72.27652611600978, 65.2565748025506]}}, {"type": "Feature", "properties": {"norad_id": 37988, "name": "COSMOS 2251 DEB", "group": "cosmos-2251-debris", "lat": 64.11870631999014, "lon": 42.79539004153821, "alt_km": 618.1769198276115, "timestamp": "2025-12-21T16:47:55.136876+00:00", "meta": {"OBJECT_NAME": "COSMOS 2251 DEB", "OBJECT_ID": "1993-036BQP", "EPOCH": "2025-12-19T02:22:34.688640", "MEAN_MOTION": 14.6891967, "ECCENTRICITY": 0.00635463, "INCLINATION": 74.062, "RA_OF_ASC_NODE": 11.7337, "ARG_OF_PERICENTER": 47.3595, "MEAN_ANOMALY": 313.2907, "EPHEMERIS_TYPE": 0, "CLASSIFICATION_TYPE": "U", "NORAD_CAT_ID": 37988, "ELEMENT_SET_NO": 999, "REV_AT_EPOCH": 23489, "BSTAR": 0.00064166354, "MEAN_MOTION_DOT": 3.842e-05, "MEAN_MOTION_DDOT": 0}, "tle": {"line1": "1 37988U 93036BQP 25353.09901260  .00003842  00000+0  64166-3 0  9993", "line2": "2 37988  74.0620  11.7337 0063546  47.3595 313.2907 14.68919670234897"}}, "geometry": {"type": "Point", "coordinates": [42.79539004153821, 64.11870631999014]}}, {"type": "Feature", "properties": {"norad_id": 37993, "name": "COSMOS 2251 DEB", "group": "cosmos-2251-debris", "lat": -71.81955721961954, "lon": 89.05341638034442, "alt_km": 688.5312742694196, "timestamp": "2025-12-21T16:47:55.136887+00:00", "meta": {"OBJECT_NAME": "COSMOS 2251 DEB", "OBJECT_ID": "1993-036BQU", "EPOCH": "2025-12-17T04:37:52.855104", "MEAN_MOTION": 14.59966404, "ECCENTRICITY": 0.00218755, "INCLINATION": 74.021, "RA_OF_ASC_NODE": 158.4097, "ARG_OF_PERICENTER": 246.7183, "MEAN_ANOMALY": 113.168, "EPHEMERIS_TYPE": 0, "CLASSIFICATION_TYPE": "U", "NORAD_CAT_ID": 37993, "ELEMENT_SET_NO": 999, "REV_AT_EPOCH": 65382, "BSTAR": 0.0010496489, "MEAN_MOTION_DOT": 5.024e-05, "MEAN_MOTION_DDOT": 0}, "tle": {"line1": "1 37993U 93036BQU 25351.19297286  .00005024  00000+0  10496-2 0  9994", "line2": "2 37993  74.0210 158.4097 0021875 246.7183 113.1680 14.59966404653827"}}, "geometry": {"type": "Point", "coordinates": [89.05341638034442, -71.81955721961954]}}, {"type": "Feature", "properties": {"norad_id": 37994, "name": "COSMOS 2251 DEB", "group": "cosmos-2251-debris", "lat": 65.42906749337072, "lon": -62.096278578240074, "alt_km": 754.1170007602332, "timestamp": "2025-12-21T16:47:55.136896+00:00", "meta": {"OBJECT_NAME": "COSMOS 2251 DEB", "OBJECT_ID": "1993-036BQV", "EPOCH": "2025-12-21T03:07:42.468960", "MEAN_MOTION": 14.39640322, "ECCENTRICITY": 0.0023264, "INCLINATION": 74.036, "RA_OF_ASC_NODE": 260.1947, "ARG_OF_PERICENTER": 338.1382, "MEAN_ANOMALY": 21.8778, "EPHEMERIS_TYPE": 0, "CLASSIFICATION_TYPE": "U", "NORAD_CAT_ID": 37994, "ELEMENT_SET_NO": 999, "REV_AT_EPOCH": 77185, "BSTAR": 0.00023320325, "MEAN_MOTION_DOT": 7.05e-06, "MEAN_MOTION_DDOT": 0}, "tle": {"line1": "1 37994U 93036BQV 25355.13035265  .00000705  00000+0  23320-3 0  9992", "line2": "2 37994  74.0360 260.1947 0023264 338.1382  21.8778 14.39640322771853"}}, "geometry": {"type": "Point", "coordinates": [-62.096278578240074, 65.42906749337072]}}, {"type": "Feature", "properties": {"norad_id": 37998, "name": "COSMOS 2251 DEB", "group": "cosmos-2251-debris", "lat": 17.22929429294958, "lon": 33.30692563989326, "alt_km": 749.3513495670986, "timestamp": "2025-12-21T16:47:55.136906+00:00", "meta": {"OBJECT_NAME": "COSMOS 2251 DEB", "OBJECT_ID": "1993-036BQZ", "EPOCH": "2025-12-19T00:55:56.823168", "MEAN_MOTION": 14.45502343, "ECCENTRICITY": 0.00202427, "INCLINATION": 74.0345, "RA_OF_ASC_NODE": 223.3597, "ARG_OF_PERICENTER": 295.5973, "MEAN_ANOMALY": 64.3093, "EPHEMERIS_TYPE": 0, "CLASSIFICATION_TYPE": "U", "NORAD_CAT_ID": 37998, "ELEMENT_SET_NO": 999, "REV_AT_EPOCH": 64378, "BSTAR": 0.00035299512, "MEAN_MOTION_DOT": 1.221e-05, "MEAN_MOTION_DDOT": 0}, "tle": {"line1": "1 37998U 93036BQZ 25353.03885212  .00001221  00000+0  35300-3 0  9993", "line2": "2 37998  74.0345 223.3597 0020242 295.5973  64.3093 14.45502343643786"}}, "geometry": {"type": "Point", "coordinates": [33.30692563989326, 17.22929429294958]}}, {"type": "Feature", "properties": {"norad_id": 38001, "name": "COSMOS 2251 DEB", "group": "cosmos-2251-debris", "lat": 53.749907196447246, "lon": -88.36722226956846, "alt_km": 661.3344717857553, "timestamp": "2025-12-21T16:47:55.136917+00:00", "meta": {"OBJECT_NAME": "COSMOS 2251 DEB", "OBJECT_ID": "1993-036BRC", "EPOCH": "2025-12-21T02:27:07.488864", "MEAN_MOTION": 14.79162796, "ECCENTRICITY": 0.00654443, "INCLINATION": 74.0031, "RA_OF_ASC_NODE": 115.8431, "ARG_OF_PERICENTER": 263.7981, "MEAN_ANOMALY": 277.7866, "EPHEMERIS_TYPE": 0, "CLASSIFICATION_TYPE": "U", "NORAD_CAT_ID": 38001, "ELEMENT_SET_NO": 999, "REV_AT_EPOCH": 74831, "BSTAR": 0.0005383201, "MEAN_MOTION_DOT": 4.104e-05, "MEAN_MOTION_DDOT": 0}, "tle": {"line1": "1 38001U 93036BRC 25355.10217001  .00004104  00000+0  53832-3 0  9997", "line2": "2 38001  74.0031 115.8431 0065444 263.7981 277.7866 14.79162796748319"}}, "geometry": {"type": "Point", "coordinates": [-88.36722226956846, 53.749907196447246]}}, {"type": "Feature", "properties": {"norad_id": 38006, "name": "COSMOS 2251 DEB", "group": "cosmos-2251-debris", "lat": -18.248847338245632, "lon": 15.702144106954806, "alt_km": 690.9823712690813, "timestamp": "2025-12-21T16:47:55.136927+00:00", "meta": {"OBJECT_NAME": "COSMOS 2251 DEB", "OBJECT_ID": "1993-036BRH", "EPOCH": "2025-12-10T03:36:37.956384", "MEAN_MOTION": 14.45867865, "ECCENTRICITY": 0.00758537, "INCLINATION": 73.8744, "RA_OF_ASC_NODE": 42.933, "ARG_OF_PERICENTER": 348.3853, "MEAN_ANOMALY": 11.555, "EPHEMERIS_TYPE": 0, "CLASSIFICATION_TYPE": "U", "NORAD_CAT_ID": 38006, "ELEMENT_SET_NO": 999, "REV_AT_EPOCH": 62922, "BSTAR": 0.0047338847, "MEAN_MOTION_DOT": 0.00017443, "MEAN_MOTION_DDOT": 0}, "tle": {"line1": "1 38006U 93036BRH 25344.15043931  .00017443  00000+0  47339-2 0  9998", "line2": "2 38006  73.8744  42.9330 0075853 348.3853  11.5550 14.45867865629227"}}, "geometry": {"type": "Point", "coordinates": [15.702144106954806, -18.248847338245632]}}]}